EUTELSAT 21B            
1 38992U 12062B   25297.92405697  .00000142  00000+0  00000+0 0  9994
2 38992   0.0716 359.5142 0002926 222.8317 165.5331  1.00268747 47460
EUTELSAT 70B            
1 39020U 12069A   25297.91833779 -.00000031  00000+0  00000+0 0  9997
2 39020   0.0673   8.9346 0004339 205.1719 220.5718  1.00271716 47153
EUTELSAT 117 WEST A     
1 39122U 13012A   25297.88124428 -.00000001  00000+0  00000+0 0  9996
2 39122   0.0169  51.3313 0002612 161.0952  21.5671  1.00272701 46075
EUTELSAT 7B             
1 39163U 13022A   25297.95169635  .00000061  00000+0  00000+0 0  9994
2 39163   0.0736  15.2604 0001904 297.1954  70.7706  1.00271166 45593
EXPRESS-AT1             
1 39612U 14010A   25297.95530757  .00000091  00000+0  00000+0 0  9991
2 39612   0.0138 252.3753 0000457 224.2660 316.8873  1.00271722 42453
EXPRESS-AT2             
1 39613U 14010B   25297.78937716 -.00000268  00000+0  00000+0 0  9996
2 39613   0.0154 248.5620 0000373 252.1167 316.8159  1.00272360 42143
EUTELSAT 3B             
1 39773U 14030A   25297.95183524  .00000033  00000+0  00000+0 0  9993
2 39773   0.0685  11.6604 0004361 191.3558 176.3605  1.00272528 41701
EUTELSAT 115 WEST B     
1 40425U 15010B   25297.38207742 -.00000013  00000+0  00000+0 0  9993
2 40425   0.0123  96.5478 0000296 204.2119 114.9554  1.00270766 39020
